[ {"OBJECT_NAME": "SHIJIAN-6 05A (SJ-6 05A)", "NORAD_CAT_ID": 49961, "MEAN_MOTION": 14.99135922, "ECCENTRICITY": 0.0001623, "INCLINATION": 97.4008, "RA_OF_ASC_NODE": 55.2645, "ARG_OF_PERICENTER": 44.1046, "MEAN_ANOMALY": 316.0307, "BSTAR": 0.00014823, "EPOCH": "2026-03-23T12:00:02"}, {"OBJECT_NAME": "SHIJIAN-6 05B (SJ-6 05B)", "NORAD_CAT_ID": 49962, "MEAN_MOTION": 15.11517098, "ECCENTRICITY": 0.0001799, "INCLINATION": 97.3742, "RA_OF_ASC_NODE": 66.2945, "ARG_OF_PERICENTER": 42.1784, "MEAN_ANOMALY": 317.9585, "BSTAR": 0.00012847, "EPOCH": "2026-03-23T17:24:10"}, {"OBJECT_NAME": "SHIJIAN-23 (SJ-23)", "NORAD_CAT_ID": 55131, "MEAN_MOTION": 1.00479735, "ECCENTRICITY": 0.0005778, "INCLINATION": 3.4976, "RA_OF_ASC_NODE": 79.3818, "ARG_OF_PERICENTER": 262.2916, "MEAN_ANOMALY": 266.0574, "BSTAR": 0.0, "EPOCH": "2026-03-23T18:48:39"}, {"OBJECT_NAME": "SHIJIAN-25 (SJ-25)", "NORAD_CAT_ID": 62485, "MEAN_MOTION": 1.00275314, "ECCENTRICITY": 0.0050052, "INCLINATION": 4.9114, "RA_OF_ASC_NODE": 61.6532, "ARG_OF_PERICENTER": 167.3694, "MEAN_ANOMALY": 359.6113, "BSTAR": 0.0, "EPOCH": "2026-03-23T18:40:14"}, {"OBJECT_NAME": "SHIJIAN-6 01B (SJ-6 01B)", "NORAD_CAT_ID": 28414, "MEAN_MOTION": 15.05717256, "ECCENTRICITY": 0.0006165, "INCLINATION": 97.6117, "RA_OF_ASC_NODE": 101.9105, "ARG_OF_PERICENTER": 76.9862, "MEAN_ANOMALY": 283.2053, "BSTAR": 0.00032, "EPOCH": "2026-03-23T22:32:48"}, {"OBJECT_NAME": "SHIJIAN-26 (SJ-26)", "NORAD_CAT_ID": 64199, "MEAN_MOTION": 15.22736808, "ECCENTRICITY": 0.0017738, "INCLINATION": 97.4583, "RA_OF_ASC_NODE": 162.0919, "ARG_OF_PERICENTER": 292.6885, "MEAN_ANOMALY": 67.2475, "BSTAR": 0.00026433, "EPOCH": "2026-03-23T23:49:39"}, {"OBJECT_NAME": "SHIJIAN-30B (SJ-30B)", "NORAD_CAT_ID": 66546, "MEAN_MOTION": 15.15533042, "ECCENTRICITY": 0.0009909, "INCLINATION": 51.7954, "RA_OF_ASC_NODE": 219.1773, "ARG_OF_PERICENTER": 344.3147, "MEAN_ANOMALY": 15.7521, "BSTAR": 0.00059473, "EPOCH": "2026-03-23T20:13:56"}, {"OBJECT_NAME": "SHIJIAN-30C (SJ-30C)", "NORAD_CAT_ID": 66547, "MEAN_MOTION": 15.15509191, "ECCENTRICITY": 0.0010193, "INCLINATION": 51.7963, "RA_OF_ASC_NODE": 219.1922, "ARG_OF_PERICENTER": 336.8046, "MEAN_ANOMALY": 23.2469, "BSTAR": 0.00058816, "EPOCH": "2026-03-23T20:14:51"}, {"OBJECT_NAME": "KONDOR-FKA NO. 1", "NORAD_CAT_ID": 56756, "MEAN_MOTION": 15.19762718, "ECCENTRICITY": 0.0001707, "INCLINATION": 97.4397, "RA_OF_ASC_NODE": 278.7441, "ARG_OF_PERICENTER": 86.4071, "MEAN_ANOMALY": 273.7359, "BSTAR": 0.00024218999999999998, "EPOCH": "2026-03-23T22:51:36"}, {"OBJECT_NAME": "KONDOR-FKA NO. 2", "NORAD_CAT_ID": 62138, "MEAN_MOTION": 15.1972016, "ECCENTRICITY": 0.0001693, "INCLINATION": 97.4341, "RA_OF_ASC_NODE": 287.5911, "ARG_OF_PERICENTER": 91.2839, "MEAN_ANOMALY": 268.859, "BSTAR": 0.00024024999999999999, "EPOCH": "2026-03-23T21:52:23"}, {"OBJECT_NAME": "GEOEYE 1", "NORAD_CAT_ID": 33331, "MEAN_MOTION": 14.64784167, "ECCENTRICITY": 0.0002966, "INCLINATION": 98.1183, "RA_OF_ASC_NODE": 157.965, "ARG_OF_PERICENTER": 344.0113, "MEAN_ANOMALY": 16.0996, "BSTAR": 0.00011465000000000001, "EPOCH": "2026-03-23T23:07:28"}, {"OBJECT_NAME": "BEIDOU-2 IGSO-3 (C08)", "NORAD_CAT_ID": 37384, "MEAN_MOTION": 1.00288473, "ECCENTRICITY": 0.0034463, "INCLINATION": 62.2966, "RA_OF_ASC_NODE": 40.9675, "ARG_OF_PERICENTER": 189.7809, "MEAN_ANOMALY": 351.0224, "BSTAR": 0.0, "EPOCH": "2026-03-22T19:37:21"}, {"OBJECT_NAME": "BEIDOU-3S IGSO-1S (C31)", "NORAD_CAT_ID": 40549, "MEAN_MOTION": 1.00268843, "ECCENTRICITY": 0.0036261, "INCLINATION": 49.3559, "RA_OF_ASC_NODE": 296.4949, "ARG_OF_PERICENTER": 190.1236, "MEAN_ANOMALY": 255.118, "BSTAR": 0.0, "EPOCH": "2026-03-23T06:58:51"}, {"OBJECT_NAME": "BEIDOU-2 IGSO-6 (C13)", "NORAD_CAT_ID": 41434, "MEAN_MOTION": 1.00274108, "ECCENTRICITY": 0.0058883, "INCLINATION": 60.1143, "RA_OF_ASC_NODE": 38.8864, "ARG_OF_PERICENTER": 233.5094, "MEAN_ANOMALY": 327.1221, "BSTAR": 0.0, "EPOCH": "2026-03-23T21:29:38"}, {"OBJECT_NAME": "BEIDOU-2 IGSO-7 (C16)", "NORAD_CAT_ID": 43539, "MEAN_MOTION": 1.00277421, "ECCENTRICITY": 0.0101497, "INCLINATION": 55.1843, "RA_OF_ASC_NODE": 163.8079, "ARG_OF_PERICENTER": 237.0388, "MEAN_ANOMALY": 126.0236, "BSTAR": 0.0, "EPOCH": "2026-03-23T15:31:21"}, {"OBJECT_NAME": "BEIDOU-2 IGSO-2 (C07)", "NORAD_CAT_ID": 37256, "MEAN_MOTION": 1.00254021, "ECCENTRICITY": 0.0047798, "INCLINATION": 47.7058, "RA_OF_ASC_NODE": 272.9336, "ARG_OF_PERICENTER": 212.7858, "MEAN_ANOMALY": 135.9365, "BSTAR": 0.0, "EPOCH": "2026-03-19T22:32:24"}, {"OBJECT_NAME": "SBIRS GEO-1 (USA 230)", "NORAD_CAT_ID": 37481, "MEAN_MOTION": 1.00272492, "ECCENTRICITY": 0.0002319, "INCLINATION": 4.3494, "RA_OF_ASC_NODE": 53.1046, "ARG_OF_PERICENTER": 309.5877, "MEAN_ANOMALY": 201.7295, "BSTAR": 0.0, "EPOCH": "2026-03-23T22:04:54"}, {"OBJECT_NAME": "SBIRS GEO-2 (USA 241)", "NORAD_CAT_ID": 39120, "MEAN_MOTION": 1.00271132, "ECCENTRICITY": 0.0002346, "INCLINATION": 4.3032, "RA_OF_ASC_NODE": 52.4044, "ARG_OF_PERICENTER": 308.8878, "MEAN_ANOMALY": 196.8605, "BSTAR": 0.0, "EPOCH": "2026-03-23T04:29:08"}, {"OBJECT_NAME": "SBIRS GEO-4 (USA 273)", "NORAD_CAT_ID": 41937, "MEAN_MOTION": 1.00271844, "ECCENTRICITY": 0.0002298, "INCLINATION": 2.0828, "RA_OF_ASC_NODE": 40.6763, "ARG_OF_PERICENTER": 313.3652, "MEAN_ANOMALY": 305.5989, "BSTAR": 0.0, "EPOCH": "2026-03-23T06:31:56"}]