SHIJIAN-6 01B (SJ-6 01B)
1 28414U 04035B   26082.93945333  .00004569  00000+0  32000-3 0  9999
2 28414  97.6117 101.9105 0006165  76.9862 283.2053 15.05717256173996
GEOEYE 1                
1 33331U 08042A   26082.96352732  .00000564  00000+0  11465-3 0  9996
2 33331  98.1183 157.9650 0002966 344.0113  16.0996 14.64784167937678
BEIDOU-2 IGSO-2         
1 37256U 10068A   26078.93917145 -.00000176  00000+0  00000+0 0  9993
2 37256  47.7058 272.9336 0047798 212.7858 135.9365  1.00254021 55890
BEIDOU-2 IGSO-3         
1 37384U 11013A   26081.81761381 -.00000177  00000+0  00000+0 0  9997
2 37384  62.2966  40.9675 0034463 189.7809 351.0224  1.00288473 54796
SBIRS GEO-1 (USA 230)   
1 37481U 11019A   26082.92007048  .00000096  00000+0  00000+0 0  9996
2 37481   4.3494  53.1046 0002319 309.5877 201.7295  1.00272492 54543
SBIRS GEO-2 (USA 241)   
1 39120U 13011A   26082.18690094 -.00000287  00000+0  00000+0 0  9992
2 39120   4.3032  52.4044 0002346 308.8878 196.8605  1.00271132 47671
BEIDOU-3S IGSO-1S       
1 40549U 15019A   26082.29086919 -.00000163  00000+0  00000+0 0  9999
2 40549  49.3559 296.4949 0036261 190.1236 255.1180  1.00268843 40213
BEIDOU-2 IGSO-6         
1 41434U 16021A   26082.89558560 -.00000154  00000+0  00000+0 0  9999
2 41434  60.1143  38.8864 0058883 233.5094 327.1221  1.00274108 36626
SBIRS GEO-4 (USA 273)   
1 41937U 17004A   26082.27218130  .00000121  00000+0  00000+0 0  9990
2 41937   2.0828  40.6763 0002298 313.3652 305.5989  1.00271844 33738
BEIDOU-2 IGSO-7         
1 43539U 18057A   26082.64677115 -.00000127  00000+0  00000+0 0  9999
2 43539  55.1843 163.8079 0101497 237.0388 126.0236  1.00277421 28272
SHIJIAN-6 05A (SJ-6 05A)
1 49961U 21122A   26082.50002809  .00001747  00000+0  14823-3 0  9998
2 49961  97.4008  55.2645 0001623  44.1046 316.0307 14.99135922235912
SHIJIAN-6 05B (SJ-6 05B)
1 49962U 21122B   26082.72512223  .00002114  00000+0  12847-3 0  9992
2 49962  97.3742  66.2945 0001799  42.1784 317.9585 15.11517098236836
SHIJIAN-23 (SJ-23)      
1 55131U 23002A   26082.78379078 -.00000212  00000+0  00000+0 0  9993
2 55131   3.4976  79.3818 0005778 262.2916 266.0574  1.00479735 11656
KONDOR-FKA NO. 1        
1 56756U 23074A   26082.95250819  .00005113  00000+0  24219-3 0  9992
2 56756  97.4397 278.7441 0001707  86.4071 273.7359 15.19762718156740
KONDOR-FKA NO. 2        
1 62138U 24223A   26082.91138426  .00005065  00000+0  24025-3 0  9996
2 62138  97.4341 287.5911 0001693  91.2839 268.8590 15.19720160 72755
SHIJIAN-25 (SJ-25)      
1 62485U 25002A   26082.77794294 -.00000353  00000+0  00000+0 0  9991
2 62485   4.9114  61.6532 0050052 167.3694 359.6113  1.00275314  4507
SHIJIAN-26 (SJ-26)      
1 64199U 25115A   26082.99282139  .00006122  00000+0  26433-3 0  9995
2 64199  97.4583 162.0919 0017738 292.6885  67.2475 15.22736808 45474
SHIJIAN-30B (SJ-30B)    
1 66546U 25266B   26082.84301998  .00011135  00000+0  59473-3 0  9999
2 66546  51.7954 219.1773 0009909 344.3147  15.7521 15.15533042 18912
SHIJIAN-30C (SJ-30C)    
1 66547U 25266C   26082.84365316  .00011001  00000+0  58816-3 0  9996
2 66547  51.7963 219.1922 0010193 336.8046  23.2469 15.15509191 18913
